PROBA-1                 
1 26958U 01049B   15120.87939197  .00002601  00000-0  23553-3 0  9996
2 26958  97.4702 109.7637 0076781  58.5587 302.3065 14.93975348735266
BIRD 2                  
1 26959U 01049C   15120.34280058  .00006068  00000-0  22207-3 0  9990
2 26959  97.7763  18.8975 0009568 246.4264 251.2022 15.28410628747094
CUTE-1 (CO-55)          
1 27844U 03031E   15119.51459097  .00000304  00000-0  15810-3 0  9994
2 27844  98.6962 128.7350 0010951  82.8214  70.5278 14.21777832613522
CUBESAT XI-IV (CO-57)   
1 27848U 03031J   15120.50737919  .00000238  00000-0  12873-3 0  9993
2 27848  98.7059 129.5961 0010863  86.9609  64.7003 14.21428506613573
GENESIS 1               
1 29252U 06029A   15119.96392852  .00003174  00000-0  17979-3 0  9999
2 29252  64.5072 306.2886 0051624 275.1765 198.3793 15.13914906483734
FALCONSAT-3             
1 30776U 07006E   15119.97944473  .00011102  00000-0  45639-3 0  9995
2 30776  35.4269 303.1453 0001673 250.5869 242.9015 15.23441585448945
GENESIS 2               
1 31789U 07028A   15120.47079924  .00002478  00000-0  13677-3 0  9994
2 31789  64.5076 339.8497 0032271 319.2323  40.6894 15.13247316430932
APRIZESAT 4             
1 35684U 09041D   15119.77571810  .00000734  00000-0  10599-3 0  9994
2 35684  98.0710  46.3173 0049221  88.8893 298.4082 14.78504295309942
APRIZESAT 3             
1 35686U 09041F   15119.95752315  .00001529  00000-0  17196-3 0  9990
2 35686  98.1923  79.6928 0075073  27.5361 332.9799 14.86280806311403
PROBA-2                 
1 36037U 09059B   15120.15242885  .00000158  00000-0  49259-4 0  9993
2 36037  98.2774 313.8657 0012605 209.4734 284.2439 14.52829919291019
APRIZESAT 5             
1 37792U 11044E   15120.36542405  .00000642  00000-0  10209-3 0  9993
2 37792  98.2424 234.2682 0059295  13.6278  30.6218 14.74545755199065
APRIZESAT 6             
1 37793U 11044F   15120.51078906  .00000597  00000-0  10260-3 0  9997
2 37793  98.2181 226.9982 0048060  28.0874 100.8055 14.71697930198717
TET-1                   
1 38710U 12039D   15120.37726366  .00008914  00000-0  26138-3 0  9998
2 38710  97.4789  44.6474 0003650 113.0107 247.1521 15.35417912154304
STSAT-2C                
1 39068U 13003A   15120.63116870  .00075933  00000-0  11656-2 0  9992
2 39068  80.2465 353.5790 0580274   0.3197 359.8749 14.59077646116687
CUSAT 1                 
1 39266U 13055B   15119.99216568  .00017700  00000-0  54315-3 0  9999
2 39266  80.9905  94.1923 0714376 328.8198  27.2364 14.16399655 81130
STPSAT-3                
1 39380U 13064A   15120.23582420  .00006927  00000-0  25526-3 0  9999
2 39380  40.5026  56.5248 0005306 242.7279 117.2992 15.27995274 80290
APRIZESAT 7             
1 39416U 13066A   15120.18588682  .00000628  00000-0  82534-4 0  9996
2 39416  97.7389 188.0745 0040370 288.9302  70.7538 14.83133745 77730
APRIZESAT 8             
1 39425U 13066K   15120.15533959  .00000530  00000-0  74716-4 0  9995
2 39425  97.7355 185.8361 0051157 291.8044  67.7730 14.80460682 77610
BUGSAT-1 (TITA)         
1 40014U 14033E   15120.80941393  .00002698  00000-0  26112-3 0  9996
2 40014  97.9686  24.5531 0034074  26.1474 334.1457 14.93210582 46976
SAUDISAT 4              
1 40016U 14033G   15120.79230016  .00000667  00000-0  10577-3 0  9991
2 40016  97.9492  15.2064 0047409 273.4595  86.1178 14.74746924 46425
TABLETSAT-AURORA        
1 40017U 14033H   15120.79580851  .00002770  00000-0  28355-3 0  9997
2 40017  97.9655  23.3773 0025450  21.2105 339.0139 14.91136697 46901
APRIZESAT 9             
1 40018U 14033J   15120.75975125  .00000528  00000-0  94318-4 0  9998
2 40018  97.9443  12.4411 0070840 276.1239  83.1891 14.69466633 46157
APRIZESAT 10            
1 40019U 14033K   15120.76211465  .00000537  00000-0  10077-3 0  9999
2 40019  97.9405  10.9606 0083731 278.8847  80.2873 14.66570714 46119
AISAT                   
1 40054U 14034B   15120.82159168  .00003796  00000-0  56870-3 0  9998
2 40054  98.2174 197.7963 0014387  20.2658 339.9088 14.75182967 44877
CANX-4                  
1 40055U 14034C   15120.82015083  .00001202  00000-0  19052-3 0  9997
2 40055  98.2191 197.7538 0015275  29.6096 330.5961 14.74027324 44861
CANX-5                  
1 40056U 14034D   15120.75243759  .00001196  00000-0  18961-3 0  9993
2 40056  98.2195 197.6849 0015220  30.1660 330.0409 14.74025505 44854
TDS 1                   
1 40076U 14037H   15120.80223103  .00000805  00000-0  11166-3 0  9991
2 40076  98.3532 190.3743 0007103  59.6503 300.5400 14.80880874 43800
TIANTUO 2               
1 40144U 14053B   15120.80267193  .00004932  00000-0  17354-3 0  9992
2 40144  97.3863 197.8538 0013548 157.6519 343.7106 15.29720386 35833
